[
    {
        "Altitude(m)": 612502.1887097479,
        "Argument of Periapsis(deg)": 0.0,
        "Eccentricity": 0.0,
        "Inclination(deg)": 60.0,
        "Latitude(deg)": -28.135954060472432,
        "Longitude(deg)": 77.14826606012157,
        "Mean Anomaly(deg)": -32.727299999999985,
        "RAAN(deg)": 195.00000000000003,
        "Satellite Name": "Test1 878",
        "Satellite Number": 878,
        "Semi-Major Axis(m)": 6980739.136638005,
        "Time(s)": 0
    },
    {
        "Altitude(m)": 612308.6366105411,
        "Argument of Periapsis(deg)": 0.00010418945913296404,
        "Eccentricity": 0.0,
        "Inclination(deg)": 60.0,
        "Latitude(deg)": -27.62300916982354,
        "Longitude(deg)": 77.50173979071945,
        "Mean Anomaly(deg)": -32.10719385453813,
        "RAAN(deg)": 194.99957995086024,
        "Satellite Name": "Test1 878",
        "Satellite Number": 878,
        "Semi-Major Axis(m)": 6980739.136638005,
        "Time(s)": 10
    }
]